[{"OBJECT_NAME":"STARLINK-5725","OBJECT_ID":"2023-020AN","EPOCH":"2026-03-09T20:53:22.959168","MEAN_MOTION":15.03742698,"ECCENTRICITY":0.00022746,"INCLINATION":43.0064,"RA_OF_ASC_NODE":350.9238,"ARG_OF_PERICENTER":357.3918,"MEAN_ANOMALY":2.6913,"EPHEMERIS_TYPE":0,"CLASSIFICATION_TYPE":"U","NORAD_CAT_ID":55605,"ELEMENT_SET_NO":999,"REV_AT_EPOCH":16909,"BSTAR":0.0082125021,"MEAN_MOTION_DOT":0.00116267,"MEAN_MOTION_DDOT":0},{"OBJECT_NAME":"UNKNOWN","OBJECT_ID":"","EPOCH":"2026-03-08T16:53:53.910816","MEAN_MOTION":15.05228096,"ECCENTRICITY":0.0007208,"INCLINATION":85.8751,"RA_OF_ASC_NODE":153.385,"ARG_OF_PERICENTER":323.4201,"MEAN_ANOMALY":36.654,"EPHEMERIS_TYPE":0,"CLASSIFICATION_TYPE":"U","NORAD_CAT_ID":81343,"ELEMENT_SET_NO":999,"REV_AT_EPOCH":46724,"BSTAR":0.00071714,"MEAN_MOTION_DOT":0.00010274,"MEAN_MOTION_DDOT":0}]
